{"type":"FeatureCollection","name":"ne_50m_admin_1_states_provinces","crs":{"type":"name","properties":{"name":"urn:ogc:def:crs:OGC:1.3:CRS84"}},"features":[{"type":"Feature","properties":{"name":"甘肃","admin":"China"},"bbox":[92.772405,32.608346,108.70368,42.789792],"geometry":{"type":"Polygon","coordinates":[[[96.373,42.731],[97.206,42.79],[97.847,41.619],[97.648,41.456],[97.708,41.349],[98.327,40.856],[98.235,40.542],[98.646,40.568],[98.826,40.727],[99.157,40.836],[99.665,40.901],[100.075,40.859],[100.204,40.617],[100.14,40.518],[99.899,40.205],[99.627,40.069],[99.431,39.879],[99.686,39.876],[100.189,39.695],[100.543,39.409],[100.79,39.408],[100.889,39.105],[101.049,39.001],[101.18,39.021],[101.32,38.758],[101.831,38.69],[102.023,38.893],[101.825,39.064],[102.393,39.237],[102.965,39.119],[103.464,39.357],[104.024,39.441],[104.225,39.091],[104.172,38.96],[103.794,38.591],[103.471,38.436],[103.522,38.14],[103.388,38.102],[103.438,37.842],[103.679,37.775],[104.262,37.39],[104.69,37.412],[104.722,37.339],[104.621,37.249],[104.855,37.218],[104.922,37.097],[105.18,36.972],[105.322,36.781],[105.22,36.693],[105.446,36.255],[105.437,36.107],[105.351,36.058],[105.318,35.933],[105.432,35.756],[105.687,35.66],[105.829,35.494],[106.065,35.488],[106.378,35.261],[106.465,35.332],[106.495,35.553],[106.429,35.699],[106.767,35.707],[106.913,35.789],[106.843,35.882],[106.915,35.907],[106.945,36.077],[106.814,36.212],[106.497,36.268],[106.44,36.515],[106.502,36.707],[106.602,36.726],[106.649,36.834],[106.575,36.931],[106.644,37.182],[106.791,37.19],[106.933,37.107],[107.188,37.117],[107.285,37.068],[107.3,36.907],[107.887,36.755],[108.042,36.598],[108.356,36.546],[108.704,36.359],[108.65,36.226],[108.677,36.005],[108.493,35.881],[108.617,35.393],[108.493,35.272],[108.155,35.291],[107.979,35.223],[107.742,35.318],[107.67,35.228],[107.83,34.977],[107.71,34.951],[107.211,34.892],[106.915,35.089],[106.491,35.03],[106.55,34.863],[106.318,34.583],[106.674,34.385],[106.656,34.254],[106.554,34.281],[106.587,34.137],[106.43,33.942],[106.559,33.599],[106.496,33.544],[106.393,33.619],[106.171,33.562],[105.993,33.611],[105.832,33.498],[105.718,33.389],[105.747,33.294],[105.913,33.234],[105.886,32.978],[105.639,32.885],[105.431,32.911],[105.386,32.823],[105.435,32.774],[105.27,32.642],[104.645,32.658],[104.289,32.848],[104.406,33.063],[104.156,33.624],[103.523,33.714],[103.559,33.807],[103.272,33.765],[103.184,33.822],[103.12,34.169],[102.931,34.296],[102.598,34.165],[102.618,34.084],[102.171,33.942],[102.343,33.725],[102.356,33.609],[102.482,33.54],[102.482,33.465],[101.864,33.123],[101.832,33.269],[101.923,33.406],[101.884,33.546],[101.613,33.512],[101.496,33.705],[101.4,33.645],[101.16,33.664],[101.129,33.851],[100.948,33.93],[100.792,34.155],[100.815,34.295],[100.935,34.386],[101.612,34.191],[101.78,34.068],[102.012,34.178],[102.212,34.352],[102.15,34.495],[101.932,34.591],[101.914,34.661],[101.793,34.632],[101.755,34.704],[101.923,34.787],[102.009,34.942],[102.267,35.056],[102.376,35.204],[102.289,35.407],[102.535,35.536],[102.702,35.524],[102.7,35.839],[102.976,35.833],[103.0,35.991],[102.933,36.086],[103.04,36.216],[102.819,36.326],[102.77,36.498],[102.611,36.657],[102.675,36.802],[102.46,36.956],[102.551,37.164],[102.033,37.479],[102.067,37.548],[101.937,37.731],[101.766,37.525],[101.05,37.964],[100.636,38.105],[100.554,38.252],[100.358,38.307],[100.141,38.486],[100.083,38.395],[100.156,38.303],[99.8,38.366],[99.099,38.89],[99.095,38.958],[98.782,39.068],[98.602,38.948],[98.324,39.023],[98.069,38.802],[97.363,39.15],[97.026,39.196],[96.963,39.103],[96.945,38.358],[96.845,38.356],[96.51,38.47],[96.503,38.549],[96.315,38.627],[96.055,38.679],[95.305,39.183],[95.057,39.147],[94.631,39.295],[94.117,39.322],[93.722,39.307],[92.936,39.153],[92.948,39.452],[92.772,39.811],[92.92,40.118],[92.926,40.423],[93.037,40.49],[93.286,40.469],[93.577,40.588],[94.011,41.104],[94.581,41.585],[95.058,41.789],[95.864,41.855],[96.036,41.995],[96.091,42.587],[96.373,42.731]]]}},{"type":"Feature","properties":{"name":"青海","admin":"China"},"bbox":[89.435141,31.548049,103.040357,39.321941],"geometry":{"type":"Polygon","coordinates":[[[101.778,33.53],[101.691,33.42],[101.665,33.32],[101.727,33.268],[101.644,33.128],[101.445,33.236],[101.164,33.128],[101.131,32.938],[101.237,32.808],[101.171,32.688],[100.902,32.63],[100.697,32.686],[100.531,32.403],[100.473,32.485],[100.561,32.563],[100.399,32.758],[100.255,32.726],[100.223,32.637],[100.119,32.671],[100.159,32.782],[100.047,32.935],[99.769,32.922],[99.699,32.745],[99.289,32.887],[99.225,32.999],[98.852,33.175],[98.646,33.676],[98.458,33.84],[98.035,33.96],[97.745,33.865],[97.696,34.005],[97.384,33.87],[97.391,33.611],[97.539,33.454],[97.724,33.406],[97.501,33.194],[97.504,33.046],[97.361,32.897],[97.431,32.7],[97.716,32.544],[97.631,32.444],[97.361,32.5],[97.326,32.424],[97.393,32.385],[97.36,32.26],[97.254,32.204],[97.255,32.076],[96.754,31.974],[96.795,31.715],[96.737,31.68],[96.483,31.753],[96.278,31.909],[96.183,31.871],[96.148,31.78],[96.213,31.735],[96.215,31.607],[96.167,31.548],[96.094,31.701],[95.497,31.742],[95.354,31.954],[95.425,32.095],[95.382,32.17],[95.062,32.261],[94.951,32.337],[94.939,32.428],[94.582,32.672],[94.111,32.478],[93.877,32.495],[93.734,32.572],[93.51,32.516],[93.219,32.66],[93.031,32.664],[93.006,32.735],[92.221,32.745],[92.196,32.869],[91.977,32.849],[91.543,33.08],[91.362,33.337],[91.189,33.337],[91.128,33.254],[90.95,33.239],[90.804,33.141],[90.323,33.289],[90.141,33.578],[89.975,33.631],[89.637,34.093],[89.787,34.199],[89.84,34.383],[89.724,34.74],[89.825,34.846],[89.788,34.926],[89.584,34.941],[89.572,35.073],[89.455,35.213],[89.484,35.342],[89.73,35.444],[89.69,35.509],[89.789,35.827],[89.485,35.88],[89.435,35.988],[89.515,36.053],[89.972,36.105],[90.014,36.253],[90.166,36.129],[90.623,36.111],[90.829,36.01],[91.111,36.074],[91.007,36.503],[90.805,36.559],[90.688,36.698],[90.808,36.911],[91.288,37.014],[91.316,37.119],[91.074,37.488],[90.436,37.779],[90.439,37.996],[90.151,38.433],[90.478,38.533],[90.654,38.674],[91.294,38.745],[92.123,38.941],[92.333,39.05],[93.722,39.307],[94.479,39.318],[95.057,39.147],[95.305,39.183],[96.055,38.679],[96.315,38.627],[96.503,38.549],[96.51,38.47],[96.845,38.356],[96.945,38.358],[96.963,39.103],[97.026,39.196],[97.363,39.15],[98.069,38.802],[98.324,39.023],[98.602,38.948],[98.782,39.068],[99.095,38.958],[99.099,38.89],[99.8,38.366],[100.156,38.303],[100.083,38.395],[100.141,38.486],[100.358,38.307],[100.554,38.252],[100.636,38.105],[101.05,37.964],[101.766,37.525],[101.937,37.731],[102.067,37.548],[102.033,37.479],[102.551,37.164],[102.46,36.956],[102.675,36.802],[102.611,36.657],[102.77,36.498],[102.819,36.326],[103.04,36.216],[102.933,36.086],[103.0,35.991],[102.976,35.833],[102.7,35.839],[102.702,35.524],[102.535,35.536],[102.289,35.407],[102.376,35.204],[102.267,35.056],[102.009,34.942],[101.923,34.787],[101.755,34.704],[101.793,34.632],[101.914,34.661],[101.932,34.591],[102.15,34.495],[102.212,34.352],[102.012,34.178],[101.78,34.068],[101.612,34.191],[100.935,34.386],[100.815,34.295],[100.792,34.155],[100.948,33.93],[101.129,33.851],[101.16,33.664],[101.4,33.645],[101.496,33.705],[101.613,33.512],[101.778,33.53]]]}},{"type":"Feature","properties":{"name":"广西","admin":"China"},"bbox":[104.494635,21.425537,112.047301,26.382473],"geometry":{"type":"Polygon","coordinates":[[[105.512,23.152],[105.629,23.347],[105.848,23.519],[105.983,23.469],[106.128,23.541],[106.134,23.797],[106.194,23.869],[106.157,23.974],[105.971,24.088],[105.788,24.021],[105.608,24.14],[105.447,24.038],[105.32,24.118],[105.253,24.086],[105.17,24.167],[105.176,24.31],[105.061,24.431],[104.753,24.468],[104.667,24.34],[104.502,24.578],[104.495,24.698],[104.54,24.742],[104.729,24.631],[105.012,24.797],[105.1,24.954],[105.206,25.004],[105.289,24.933],[105.444,24.924],[105.509,24.817],[105.788,24.716],[105.916,24.729],[106.001,24.648],[106.176,24.782],[106.156,24.96],[106.996,25.255],[106.975,25.44],[107.244,25.559],[107.499,25.214],[107.642,25.268],[107.862,25.146],[108.129,25.269],[108.132,25.386],[108.293,25.539],[108.568,25.416],[108.695,25.602],[108.768,25.599],[108.774,25.522],[109.024,25.595],[109.044,25.709],[108.953,25.691],[108.953,25.776],[109.085,25.805],[109.3,25.743],[109.457,26.039],[109.603,26.053],[109.677,25.889],[109.772,25.908],[109.781,26.024],[109.912,26.181],[110.062,26.15],[110.034,26.036],[110.138,26.052],[110.247,25.978],[110.342,26.113],[110.537,26.225],[110.577,26.351],[110.879,26.275],[110.935,26.382],[111.252,26.28],[111.202,25.93],[111.256,25.869],[111.408,25.908],[111.411,25.803],[111.324,25.73],[111.316,25.503],[110.993,25.151],[110.955,25.025],[111.006,24.935],[111.274,25.148],[111.427,25.106],[111.462,25.019],[111.428,24.681],[111.517,24.643],[111.667,24.78],[111.997,24.736],[111.932,24.698],[111.933,24.601],[112.006,24.553],[112.047,24.381],[111.869,24.232],[111.899,23.991],[111.793,23.849],[111.658,23.842],[111.601,23.658],[111.471,23.613],[111.363,23.273],[111.411,23.053],[111.351,22.908],[111.181,22.749],[111.066,22.741],[111.024,22.639],[110.755,22.58],[110.697,22.369],[110.775,22.284],[110.671,22.268],[110.642,22.183],[110.334,22.19],[110.356,21.889],[109.967,21.867],[109.917,21.687],[109.743,21.528],[109.521,21.693],[109.544,21.538],[109.347,21.454],[109.082,21.44],[109.102,21.59],[108.772,21.63],[108.616,21.77],[108.594,21.901],[108.48,21.905],[108.502,21.633],[108.444,21.607],[108.325,21.694],[108.246,21.558],[107.973,21.508],[107.759,21.655],[107.351,21.609],[107.272,21.711],[107.062,21.794],[106.971,21.924],[106.664,21.979],[106.654,22.241],[106.554,22.342],[106.55,22.501],[106.78,22.779],[106.542,22.908],[106.279,22.857],[106.148,22.97],[105.843,22.923],[105.548,23.073],[105.512,23.152]]]}},{"type":"Feature","properties":{"name":"贵州","admin":"China"},"bbox":[103.596447,24.631391,109.507146,29.246096],"geometry":{"type":"Polygon","coordinates":[[[106.382,28.572],[106.489,28.541],[106.562,28.767],[106.626,28.637],[106.562,28.511],[106.75,28.502],[106.835,28.731],[107.031,28.888],[107.297,28.808],[107.437,28.877],[107.5,28.993],[107.424,29.077],[107.43,29.183],[107.496,29.246],[107.783,29.137],[107.79,29.04],[107.875,28.984],[108.286,29.077],[108.367,28.777],[108.33,28.689],[108.582,28.601],[108.583,28.374],[108.73,28.475],[108.784,28.426],[108.728,28.242],[109.095,28.205],[109.155,28.436],[109.258,28.506],[109.264,28.322],[109.354,28.265],[109.299,28.095],[109.363,28.03],[109.31,27.97],[109.328,27.808],[109.447,27.65],[109.418,27.56],[108.791,27.083],[108.95,27.027],[109.231,27.152],[109.438,27.131],[109.499,27.062],[109.444,26.901],[109.505,26.825],[109.294,26.727],[109.403,26.537],[109.297,26.313],[109.399,26.27],[109.457,26.039],[109.3,25.743],[109.085,25.805],[108.953,25.776],[108.953,25.691],[109.044,25.709],[109.024,25.595],[108.774,25.522],[108.768,25.599],[108.695,25.602],[108.568,25.416],[108.293,25.539],[108.132,25.386],[108.129,25.269],[107.862,25.146],[107.642,25.268],[107.499,25.214],[107.244,25.559],[106.975,25.44],[106.996,25.255],[106.156,24.96],[106.176,24.782],[106.001,24.648],[105.916,24.729],[105.788,24.716],[105.509,24.817],[105.444,24.924],[105.289,24.933],[105.206,25.004],[105.1,24.954],[105.012,24.797],[104.729,24.631],[104.54,24.742],[104.707,25.017],[104.72,25.211],[104.566,25.381],[104.554,25.485],[104.433,25.507],[104.306,25.665],[104.421,25.857],[104.393,25.948],[104.499,26.031],[104.545,26.27],[104.676,26.379],[104.627,26.498],[104.466,26.613],[104.43,26.713],[104.359,26.648],[104.153,26.651],[104.02,26.514],[103.829,26.547],[103.717,26.799],[103.778,26.956],[103.596,27.076],[103.911,27.39],[104.174,27.272],[104.344,27.441],[104.444,27.347],[104.871,27.31],[105.083,27.413],[105.197,27.399],[105.297,27.722],[105.361,27.76],[105.524,27.775],[105.647,27.678],[106.248,27.775],[106.345,27.835],[106.199,28.124],[106.109,28.175],[105.906,28.151],[105.847,28.269],[105.667,28.318],[105.621,28.482],[105.683,28.583],[105.892,28.609],[105.984,28.754],[106.339,28.48],[106.382,28.572]]]}},{"type":"Feature","properties":{"name":"重庆","admin":"China"},"bbox":[105.291072,28.199855,110.174857,32.19757],"geometry":{"type":"Polygon","coordinates":[[[109.258,28.506],[109.155,28.436],[109.095,28.205],[108.728,28.242],[108.784,28.426],[108.73,28.475],[108.583,28.374],[108.582,28.601],[108.33,28.689],[108.367,28.777],[108.286,29.077],[107.875,28.984],[107.79,29.04],[107.783,29.137],[107.496,29.246],[107.43,29.183],[107.424,29.077],[107.5,28.993],[107.437,28.877],[107.297,28.808],[107.031,28.888],[106.835,28.731],[106.75,28.502],[106.562,28.511],[106.626,28.637],[106.562,28.767],[106.489,28.541],[106.298,28.672],[106.26,28.869],[106.008,28.973],[105.795,28.937],[105.701,29.224],[105.422,29.334],[105.291,29.585],[105.71,29.868],[105.739,30.033],[105.557,30.148],[105.792,30.423],[106.125,30.342],[106.239,30.22],[106.532,30.338],[106.717,30.059],[107.033,30.058],[107.478,30.61],[107.457,30.761],[107.508,30.822],[107.736,30.883],[107.85,30.81],[107.93,30.873],[108.033,31.222],[108.516,31.708],[108.501,31.791],[108.268,31.973],[108.419,32.1],[108.389,32.184],[108.518,32.198],[109.056,31.941],[109.336,31.705],[109.659,31.718],[109.733,31.561],[109.929,31.519],[110.147,31.331],[110.175,31.189],[110.108,31.122],[110.128,30.906],[110.066,30.828],[109.871,30.889],[109.394,30.584],[108.965,30.607],[108.71,30.523],[108.67,30.574],[108.433,30.487],[108.381,30.4],[108.532,30.315],[108.538,29.885],[108.4,29.831],[108.447,29.736],[108.513,29.722],[108.613,29.858],[108.696,29.698],[108.872,29.639],[108.921,29.349],[109.275,29.049],[109.281,28.729],[109.213,28.629],[109.285,28.573],[109.258,28.506]]]}},{"type":"Feature","properties":{"name":"北京","admin":"China"},"bbox":[115.427094,39.442141,117.428523,41.03101],"geometry":{"type":"Polygon","coordinates":[[[116.793,39.602],[116.604,39.611],[116.387,39.442],[116.21,39.572],[115.756,39.509],[115.463,39.643],[115.437,39.749],[115.511,39.838],[115.427,39.963],[115.578,40.096],[115.82,40.152],[115.945,40.294],[115.728,40.54],[115.995,40.596],[116.207,40.75],[116.459,40.792],[116.438,40.9],[116.653,41.031],[116.676,40.94],[117.058,40.677],[117.429,40.669],[117.412,40.597],[117.243,40.57],[117.184,40.497],[117.357,40.257],[117.311,40.11],[116.829,40.037],[116.744,39.959],[116.922,39.774],[116.793,39.602]]]}},{"type":"Feature","properties":{"name":"福建","admin":"China"},"bbox":[115.842831,23.588623,120.423805,28.325972],"geometry":{"type":"MultiPolygon","coordinates":[[[[120.424,27.203],[120.279,27.097],[120.139,26.886],[120.087,26.672],[119.968,26.586],[119.882,26.61],[119.824,26.846],[119.71,26.729],[119.588,26.785],[119.638,26.621],[119.785,26.547],[119.881,26.334],[119.463,26.055],[119.139,26.122],[119.332,25.949],[119.619,26.004],[119.648,25.919],[119.539,25.591],[119.622,25.391],[119.422,25.46],[119.18,25.45],[119.169,25.356],[119.286,25.232],[118.978,25.209],[118.914,25.127],[118.956,25.005],[118.909,24.929],[118.637,24.836],[118.719,24.746],[118.657,24.621],[118.295,24.573],[118.087,24.627],[118.006,24.482],[117.843,24.474],[117.879,24.396],[118.024,24.38],[118.056,24.246],[117.839,24.012],[117.742,24.015],[117.628,23.837],[117.466,23.841],[117.368,23.589],[117.331,23.709],[117.175,23.616],[117.037,23.738],[116.925,24.078],[116.968,24.185],[116.749,24.551],[116.745,24.671],[116.53,24.615],[116.372,24.841],[115.888,24.917],[115.843,25.195],[115.979,25.351],[116.135,25.866],[116.323,25.955],[116.419,26.153],[116.399,26.288],[116.502,26.407],[116.594,26.395],[116.619,26.492],[116.505,26.689],[116.545,26.868],[116.67,26.987],[116.923,27.021],[117.04,27.11],[117.154,27.276],[117.101,27.347],[117.112,27.568],[117.287,27.773],[117.284,27.857],[117.544,27.967],[117.605,27.866],[117.746,27.813],[117.823,27.937],[118.368,28.1],[118.349,28.22],[118.446,28.289],[118.735,28.326],[118.797,28.213],[118.748,27.973],[118.82,27.91],[118.923,27.55],[119.005,27.48],[119.266,27.424],[119.616,27.666],[119.77,27.316],[120.249,27.41],[120.344,27.38],[120.424,27.203]]],[[[118.077,24.501],[118.104,24.552],[118.183,24.496],[118.15,24.436],[118.077,24.501]]],[[[119.797,25.623],[119.832,25.48],[119.747,25.411],[119.696,25.591],[119.797,25.623]]]]}},{"type":"Feature","properties":{"name":"安徽","admin":"China"},"bbox":[114.879841,29.407869,119.629784,34.639695],"geometry":{"type":"Polygon","coordinates":[[[116.147,29.789],[116.04,30.221],[115.877,30.39],[115.947,30.488],[115.768,30.688],[115.859,30.861],[116.036,30.989],[115.669,31.217],[115.55,31.183],[115.374,31.418],[115.532,31.736],[115.901,31.794],[115.888,32.394],[115.694,32.492],[115.647,32.402],[115.565,32.402],[115.367,32.56],[115.199,32.591],[115.185,32.859],[114.88,32.993],[114.887,33.083],[114.969,33.124],[115.251,33.121],[115.345,33.251],[115.346,33.453],[115.443,33.548],[115.635,33.592],[115.574,33.75],[115.63,33.839],[115.561,33.898],[115.654,34.048],[115.961,34.0],[115.971,33.905],[116.182,33.718],[116.421,33.791],[116.641,33.953],[116.543,34.121],[116.552,34.287],[116.401,34.275],[116.157,34.447],[116.151,34.567],[116.428,34.64],[116.625,34.485],[116.949,34.389],[117.034,34.156],[117.651,33.982],[117.746,33.882],[117.752,33.724],[118.124,33.766],[118.177,33.693],[117.932,33.235],[118.081,33.15],[118.218,33.18],[118.3,32.777],[118.72,32.732],[118.857,32.972],[118.993,32.962],[119.19,32.711],[119.199,32.594],[119.081,32.446],[118.891,32.596],[118.552,32.574],[118.668,32.453],[118.684,32.339],[118.65,32.238],[118.514,32.2],[118.383,32.054],[118.352,31.947],[118.481,31.859],[118.477,31.79],[118.684,31.701],[118.681,31.647],[118.86,31.627],[118.881,31.522],[118.751,31.358],[118.816,31.226],[119.163,31.287],[119.63,31.133],[119.575,30.847],[119.443,30.639],[119.351,30.675],[119.242,30.551],[119.321,30.518],[119.363,30.404],[119.211,30.314],[118.881,30.324],[118.894,29.983],[118.741,29.828],[118.724,29.73],[118.373,29.453],[118.175,29.408],[118.113,29.519],[117.986,29.572],[117.708,29.556],[117.527,29.622],[117.406,29.831],[117.274,29.829],[117.226,29.907],[117.125,29.911],[117.067,29.841],[117.079,29.71],[116.888,29.561],[116.749,29.545],[116.648,29.627],[116.675,29.708],[116.798,29.756],[116.887,29.92],[116.791,30.022],[116.65,30.051],[116.493,29.885],[116.147,29.789]]]}},{"type":"Feature","properties":{"name":"广东","admin":"China"},"bbox":[109.662598,20.263721,117.175049,25.505575],"geometry":{"type":"MultiPolygon","coordinates":[[[[113.465,22.905],[113.564,22.758],[113.404,22.903],[113.465,22.905]]],[[[112.782,21.772],[112.863,21.753],[112.771,21.582],[112.713,21.698],[112.782,21.772]]],[[[112.559,21.675],[112.648,21.71],[112.644,21.64],[112.525,21.623],[112.559,21.675]]],[[[110.522,21.083],[110.504,20.968],[110.265,21.025],[110.522,21.083]]],[[[109.759,21.56],[109.917,21.687],[109.967,21.867],[110.356,21.889],[110.334,22.19],[110.642,22.183],[110.671,22.268],[110.775,22.284],[110.697,22.369],[110.755,22.58],[111.024,22.639],[111.066,22.741],[111.181,22.749],[111.351,22.908],[111.411,23.053],[111.391,23.431],[111.471,23.613],[111.601,23.658],[111.658,23.842],[111.793,23.849],[111.899,23.991],[111.869,24.232],[112.047,24.381],[111.932,24.698],[112.145,24.794],[112.121,24.949],[112.214,25.2],[112.663,25.113],[112.808,24.943],[112.989,24.964],[112.969,25.181],[112.889,25.241],[112.917,25.325],[113.217,25.506],[113.582,25.326],[114.012,25.435],[114.026,25.268],[114.569,25.407],[114.707,25.29],[114.683,25.163],[114.729,25.119],[114.414,24.98],[114.302,24.759],[114.192,24.695],[114.425,24.5],[115.421,24.785],[115.706,24.546],[115.799,24.573],[115.749,24.748],[115.787,24.861],[115.888,24.917],[116.372,24.841],[116.53,24.615],[116.745,24.671],[116.749,24.551],[116.968,24.185],[116.925,24.078],[117.037,23.738],[117.175,23.616],[117.083,23.579],[116.911,23.647],[116.861,23.453],[116.629,23.354],[116.699,23.278],[116.538,23.18],[116.471,22.946],[116.252,22.981],[116.157,22.887],[115.852,22.802],[115.64,22.853],[115.498,22.719],[115.196,22.817],[114.854,22.617],[114.75,22.626],[114.652,22.755],[114.544,22.621],[114.554,22.529],[114.341,22.593],[114.266,22.541],[113.931,22.531],[113.62,22.861],[113.621,23.127],[113.52,23.102],[113.445,23.055],[113.442,22.941],[113.331,22.912],[113.553,22.594],[113.548,22.223],[113.149,22.075],[113.089,22.208],[112.954,21.907],[112.809,21.945],[112.586,21.777],[112.36,21.978],[112.39,21.801],[112.305,21.742],[111.944,21.85],[111.873,21.717],[111.776,21.719],[111.603,21.559],[111.319,21.486],[111.017,21.512],[110.997,21.43],[110.771,21.387],[110.567,21.214],[110.458,21.231],[110.411,21.338],[110.375,21.172],[110.154,20.945],[110.18,20.859],[110.365,20.838],[110.313,20.672],[110.512,20.518],[110.45,20.355],[110.345,20.295],[110.123,20.264],[109.938,20.295],[109.883,20.364],[109.886,20.413],[109.984,20.403],[109.968,20.448],[109.861,20.514],[109.663,20.917],[109.681,21.132],[109.78,21.337],[109.921,21.376],[109.931,21.481],[109.759,21.56]]]]}},{"type":"Feature","properties":{"name":"西藏","admin":"China"},"bbox":[78.389665,27.316059,99.108814,36.448887],"geometry":{"type":"Polygon","coordinates":[[[78.947,34.336],[79.204,34.439],[79.794,34.431],[79.956,34.685],[79.884,34.92],[80.047,35.018],[80.014,35.086],[80.319,35.509],[80.486,35.404],[80.979,35.293],[81.061,35.389],[81.711,35.246],[82.002,35.319],[82.086,35.448],[82.428,35.69],[82.785,35.685],[82.936,35.674],[82.972,35.49],[83.099,35.413],[84.133,35.378],[85.15,35.75],[85.389,35.757],[85.62,35.675],[85.717,35.759],[85.93,35.762],[86.087,35.876],[86.212,36.116],[86.459,36.219],[88.0,36.428],[88.459,36.449],[88.828,36.374],[89.678,36.082],[89.435,35.988],[89.485,35.88],[89.789,35.827],[89.69,35.509],[89.73,35.444],[89.484,35.342],[89.455,35.213],[89.572,35.073],[89.584,34.941],[89.788,34.926],[89.825,34.846],[89.724,34.74],[89.84,34.383],[89.787,34.199],[89.637,34.093],[89.975,33.631],[90.141,33.578],[90.323,33.289],[90.804,33.141],[90.95,33.239],[91.128,33.254],[91.189,33.337],[91.362,33.337],[91.543,33.08],[91.977,32.849],[92.196,32.869],[92.221,32.745],[93.006,32.735],[93.031,32.664],[93.219,32.66],[93.51,32.516],[93.734,32.572],[93.877,32.495],[94.111,32.478],[94.582,32.672],[94.939,32.428],[94.951,32.337],[95.062,32.261],[95.382,32.17],[95.425,32.095],[95.354,31.954],[95.497,31.742],[96.094,31.701],[96.167,31.548],[96.215,31.607],[96.213,31.735],[96.148,31.78],[96.183,31.871],[96.278,31.909],[96.483,31.753],[96.737,31.68],[96.795,31.715],[96.754,31.974],[97.255,32.076],[97.254,32.204],[97.36,32.26],[97.393,32.385],[97.326,32.424],[97.361,32.5],[97.631,32.444],[97.716,32.544],[98.206,32.356],[98.22,32.252],[98.453,31.984],[98.445,31.804],[98.885,31.354],[98.768,31.23],[98.683,31.316],[98.611,31.256],[98.803,30.991],[98.775,30.902],[98.954,30.748],[98.905,30.664],[99.056,29.915],[98.987,29.651],[99.109,29.224],[98.99,29.202],[99.006,29.073],[98.909,28.912],[98.946,28.842],[98.873,28.812],[98.785,29.0],[98.665,28.974],[98.678,28.757],[98.589,28.67],[98.64,28.424],[98.576,28.318],[98.41,28.251],[98.3,28.355],[98.23,28.203],[98.099,28.14],[97.888,28.356],[97.769,28.356],[97.599,28.517],[97.538,28.51],[97.323,28.218],[97.075,28.369],[96.776,28.367],[96.603,28.46],[96.32,28.387],[96.279,28.428],[96.327,28.525],[96.581,28.764],[96.436,29.051],[96.137,28.923],[96.122,29.082],[96.356,29.249],[96.235,29.246],[96.035,29.447],[95.516,29.206],[95.389,29.037],[94.769,29.176],[94.623,29.312],[94.018,28.96],[93.974,28.861],[93.761,28.73],[93.252,28.629],[93.119,28.402],[92.653,28.093],[92.664,27.949],[92.415,27.825],[92.251,27.841],[91.978,27.73],[91.632,27.76],[91.642,27.923],[91.273,28.078],[91.021,27.97],[90.716,28.072],[90.353,28.08],[90.348,28.244],[89.981,28.311],[89.481,28.06],[88.948,27.464],[88.891,27.316],[88.749,27.522],[88.849,27.869],[88.804,28.007],[88.621,28.092],[88.141,27.949],[88.11,27.871],[87.861,27.886],[87.623,27.815],[87.141,27.838],[86.614,28.103],[86.517,27.964],[86.409,27.929],[86.137,28.114],[86.079,28.084],[86.064,27.935],[85.995,27.91],[85.678,28.277],[85.122,28.316],[85.089,28.372],[85.159,28.592],[84.797,28.56],[84.229,28.912],[84.101,29.22],[83.936,29.28],[83.584,29.184],[83.155,29.613],[82.854,29.683],[82.221,30.064],[82.043,30.327],[81.642,30.388],[81.417,30.338],[81.255,30.093],[81.11,30.037],[80.985,30.237],[80.682,30.415],[80.191,30.568],[80.149,30.79],[79.795,30.968],[79.565,30.949],[79.388,31.064],[79.107,31.403],[79.044,31.426],[78.974,31.329],[78.758,31.302],[78.727,31.472],[78.803,31.618],[78.693,31.74],[78.735,31.958],[78.496,32.216],[78.392,32.545],[78.701,32.597],[78.838,32.412],[78.998,32.365],[79.385,32.57],[79.499,32.73],[79.335,32.976],[79.355,33.17],[79.067,33.25],[78.802,33.5],[78.732,34.056],[78.971,34.228],[78.947,34.336]]]}},{"type":"Feature","properties":{"name":"新疆","admin":"China"},"bbox":[73.607321,34.335972,96.372543,49.165811],"geometry":{"type":"Polygon","coordinates":[[[78.947,34.336],[78.671,34.518],[78.282,34.654],[78.012,35.251],[78.043,35.48],[77.447,35.476],[77.09,35.552],[76.632,35.729],[76.563,35.773],[76.551,35.887],[76.178,35.811],[76.071,35.983],[75.912,36.049],[75.974,36.382],[75.84,36.65],[75.667,36.742],[75.424,36.738],[75.347,36.913],[74.541,37.022],[74.376,37.137],[74.727,37.291],[74.891,37.232],[75.119,37.386],[74.894,37.601],[74.938,37.773],[74.775,38.192],[74.836,38.404],[74.745,38.51],[74.277,38.66],[74.131,38.661],[74.026,38.54],[73.802,38.607],[73.696,38.854],[73.805,38.969],[73.607,39.229],[73.632,39.449],[73.823,39.489],[73.907,39.579],[73.835,39.8],[73.992,40.043],[74.412,40.137],[74.68,40.311],[74.831,40.328],[74.835,40.483],[75.111,40.454],[75.556,40.625],[75.677,40.306],[75.872,40.303],[76.258,40.431],[76.319,40.352],[76.48,40.45],[76.661,40.78],[76.908,41.024],[77.582,40.993],[78.123,41.076],[78.346,41.281],[78.362,41.372],[78.743,41.56],[79.766,41.899],[79.84,41.996],[80.235,42.043],[80.255,42.274],[80.165,42.666],[80.25,42.797],[80.539,42.874],[80.383,42.974],[80.39,43.043],[80.617,43.128],[80.751,43.103],[80.786,43.162],[80.668,43.31],[80.704,43.427],[80.651,43.564],[80.355,44.097],[80.355,44.552],[80.381,44.655],[80.482,44.715],[80.255,44.808],[79.997,44.797],[79.872,44.884],[80.059,45.006],[80.853,45.129],[81.692,45.349],[81.79,45.226],[81.945,45.161],[82.267,45.219],[82.521,45.125],[82.621,45.293],[82.612,45.424],[82.327,45.52],[82.315,45.595],[82.975,46.966],[83.029,47.186],[84.016,46.971],[84.667,46.972],[84.786,46.831],[85.233,47.036],[85.485,47.064],[85.657,47.255],[85.526,47.916],[85.692,48.312],[85.83,48.408],[86.549,48.529],[86.718,48.697],[86.753,49.009],[86.886,49.091],[87.417,49.077],[87.814,49.162],[87.872,49.0],[87.743,48.882],[88.06,48.707],[87.98,48.555],[88.517,48.384],[88.576,48.22],[89.048,48.003],[89.479,48.029],[89.778,47.827],[90.028,47.878],[90.103,47.745],[90.313,47.676],[90.496,47.285],[90.716,47.004],[90.87,46.954],[91.029,46.566],[90.912,46.271],[91.002,46.036],[90.71,45.731],[90.662,45.525],[90.877,45.196],[91.05,45.217],[91.584,45.077],[92.788,45.036],[93.516,44.944],[93.958,44.675],[94.199,44.645],[94.712,44.351],[95.05,44.259],[95.35,44.278],[95.326,44.039],[95.526,43.954],[95.86,43.276],[96.342,42.849],[96.373,42.731],[96.091,42.587],[96.044,42.5],[96.036,41.995],[95.864,41.855],[95.058,41.789],[94.581,41.585],[94.011,41.104],[93.577,40.588],[93.286,40.469],[93.037,40.49],[92.926,40.423],[92.92,40.118],[92.772,39.811],[92.948,39.452],[92.936,39.153],[92.333,39.05],[92.123,38.941],[91.294,38.745],[90.654,38.674],[90.478,38.533],[90.151,38.433],[90.439,37.996],[90.436,37.779],[91.074,37.488],[91.316,37.119],[91.288,37.014],[90.808,36.911],[90.688,36.698],[90.805,36.559],[91.007,36.503],[91.111,36.074],[90.829,36.01],[90.623,36.111],[90.166,36.129],[90.014,36.253],[89.972,36.105],[89.678,36.082],[88.828,36.374],[88.459,36.449],[88.0,36.428],[86.459,36.219],[86.212,36.116],[86.087,35.876],[85.93,35.762],[85.717,35.759],[85.62,35.675],[85.389,35.757],[85.15,35.75],[84.133,35.378],[83.099,35.413],[82.972,35.49],[82.936,35.674],[82.785,35.685],[82.428,35.69],[82.086,35.448],[82.002,35.319],[81.711,35.246],[81.061,35.389],[80.979,35.293],[80.486,35.404],[80.319,35.509],[80.014,35.086],[80.047,35.018],[79.884,34.92],[79.956,34.685],[79.794,34.431],[79.204,34.439],[78.947,34.336]]]}},{"type":"Feature","properties":{"name":"海南","admin":"China"},"bbox":[108.635645,18.218262,111.013672,20.137744],"geometry":{"type":"Polygon","coordinates":[[[110.971,19.883],[111.014,19.655],[110.822,19.558],[110.641,19.291],[110.451,18.748],[110.049,18.505],[110.02,18.416],[109.816,18.397],[109.703,18.259],[109.519,18.218],[108.702,18.535],[108.636,18.908],[108.666,19.304],[109.277,19.761],[109.177,19.768],[109.263,19.883],[109.514,19.904],[109.651,19.984],[110.083,19.993],[110.172,20.054],[110.344,20.039],[110.392,19.976],[110.394,20.059],[110.588,19.976],[110.652,20.138],[110.971,19.883]]]}},{"type":"Feature","properties":{"name":"宁夏","admin":"China"},"bbox":[104.358519,35.260665,107.657646,39.360957],"geometry":{"type":"Polygon","coordinates":[[[107.658,37.853],[107.317,37.59],[107.238,37.301],[107.325,37.164],[107.285,37.068],[106.644,37.182],[106.575,36.931],[106.649,36.834],[106.602,36.726],[106.502,36.707],[106.44,36.515],[106.497,36.268],[106.814,36.212],[106.945,36.077],[106.915,35.907],[106.843,35.882],[106.913,35.789],[106.767,35.707],[106.429,35.699],[106.495,35.553],[106.465,35.332],[106.378,35.261],[106.065,35.488],[105.829,35.494],[105.687,35.66],[105.432,35.756],[105.318,35.933],[105.351,36.058],[105.437,36.107],[105.446,36.255],[105.22,36.693],[105.322,36.781],[105.18,36.972],[104.922,37.097],[104.855,37.218],[104.621,37.249],[104.722,37.339],[104.69,37.412],[104.359,37.401],[104.522,37.53],[104.944,37.546],[105.354,37.753],[105.659,37.74],[105.788,37.805],[105.825,38.005],[105.756,38.136],[105.828,38.227],[105.897,38.736],[106.113,39.121],[106.283,39.157],[106.276,39.269],[106.497,39.286],[106.614,39.358],[106.789,39.361],[106.808,39.199],[106.978,39.036],[106.645,38.459],[106.47,38.291],[106.829,38.15],[107.163,38.139],[107.324,38.066],[107.405,37.922],[107.658,37.853]]]}},{"type":"Feature","properties":{"name":"陕西","admin":"China"},"bbox":[105.498553,31.705249,111.22487,39.56495],"geometry":{"type":"Polygon","coordinates":[[[107.285,37.068],[107.325,37.164],[107.238,37.301],[107.317,37.59],[107.509,37.764],[107.607,37.766],[107.658,37.853],[107.885,37.802],[108.039,37.633],[108.764,37.682],[108.791,37.942],[108.863,37.988],[108.954,37.926],[109.001,37.988],[108.986,38.335],[109.424,38.769],[109.538,38.785],[109.674,39.011],[110.177,39.285],[110.109,39.428],[110.225,39.424],[110.338,39.318],[110.494,39.374],[110.685,39.264],[110.846,39.465],[111.013,39.565],[111.137,39.565],[111.041,39.423],[111.225,39.311],[111.118,39.067],[110.995,39.004],[110.98,38.817],[110.872,38.621],[110.899,38.545],[110.511,38.202],[110.515,37.955],[110.753,37.746],[110.789,37.561],[110.63,37.397],[110.687,37.357],[110.665,37.282],[110.389,37.022],[110.496,36.484],[110.447,36.142],[110.62,35.597],[110.335,35.198],[110.237,34.801],[110.252,34.663],[110.336,34.616],[110.328,34.48],[110.479,34.326],[110.434,34.261],[110.607,34.17],[110.642,33.98],[110.594,33.88],[110.968,33.599],[111.016,33.374],[110.975,33.266],[110.711,33.108],[110.547,33.245],[110.234,33.156],[109.875,33.243],[109.516,33.237],[109.491,33.145],[109.757,33.08],[109.74,32.93],[110.096,32.841],[110.168,32.622],[110.001,32.552],[109.635,32.591],[109.579,32.541],[109.487,32.336],[109.666,32.043],[109.594,31.738],[109.336,31.705],[109.056,31.941],[108.479,32.25],[108.237,32.263],[107.96,32.158],[107.659,32.389],[107.46,32.409],[107.448,32.522],[107.202,32.453],[107.07,32.523],[107.065,32.708],[106.713,32.738],[106.229,32.592],[106.057,32.714],[106.082,32.874],[105.568,32.73],[105.499,32.907],[105.639,32.885],[105.911,33.032],[105.913,33.234],[105.747,33.294],[105.718,33.389],[105.832,33.498],[105.993,33.611],[106.171,33.562],[106.393,33.619],[106.496,33.544],[106.559,33.599],[106.43,33.942],[106.587,34.137],[106.554,34.281],[106.656,34.254],[106.674,34.385],[106.318,34.583],[106.55,34.863],[106.491,35.03],[106.915,35.089],[107.211,34.892],[107.71,34.951],[107.83,34.977],[107.67,35.228],[107.742,35.318],[107.979,35.223],[108.155,35.291],[108.493,35.272],[108.617,35.393],[108.493,35.881],[108.677,36.005],[108.65,36.226],[108.704,36.359],[108.356,36.546],[108.042,36.598],[107.887,36.755],[107.3,36.907],[107.285,37.068]]]}},{"type":"Feature","properties":{"name":"山西","admin":"China"},"bbox":[110.237437,34.583677,114.540947,40.742578],"geometry":{"type":"Polygon","coordinates":[[[110.336,34.616],[110.252,34.663],[110.26,34.945],[110.335,35.198],[110.62,35.597],[110.447,36.142],[110.496,36.484],[110.389,37.022],[110.665,37.282],[110.687,37.357],[110.63,37.397],[110.789,37.561],[110.753,37.746],[110.515,37.955],[110.511,38.202],[110.899,38.545],[110.872,38.621],[110.98,38.817],[110.995,39.004],[111.118,39.067],[111.225,39.311],[111.11,39.385],[111.343,39.444],[111.49,39.652],[111.761,39.598],[111.921,39.689],[112.099,40.005],[112.399,40.288],[112.734,40.173],[113.086,40.404],[113.23,40.417],[113.334,40.319],[113.518,40.344],[114.044,40.488],[114.027,40.635],[114.154,40.743],[114.286,40.379],[114.434,40.361],[114.45,40.294],[114.085,40.185],[113.936,40.016],[114.086,39.917],[114.383,39.861],[114.402,39.658],[114.541,39.531],[114.394,39.169],[114.216,39.069],[114.013,39.119],[113.853,39.072],[113.76,38.909],[113.825,38.81],[113.534,38.537],[113.558,38.243],[113.791,38.153],[114.1,37.698],[114.053,37.501],[113.754,37.115],[113.776,36.891],[113.454,36.737],[113.535,36.483],[113.721,36.356],[113.61,35.646],[113.491,35.525],[112.903,35.241],[112.682,35.311],[112.526,35.22],[112.058,35.234],[112.061,35.108],[111.829,35.083],[111.558,34.863],[110.531,34.584],[110.336,34.616]]]}},{"type":"Feature","properties":{"name":"湖北","admin":"China"},"bbox":[108.380599,29.06634,116.147257,33.266471],"geometry":{"type":"Polygon","coordinates":[[[113.902,29.066],[113.655,29.124],[113.588,29.294],[113.729,29.437],[113.635,29.685],[113.536,29.686],[113.52,29.842],[113.146,29.472],[112.928,29.495],[112.946,29.709],[112.886,29.792],[112.648,29.627],[112.444,29.641],[112.363,29.572],[111.769,29.92],[111.415,29.926],[111.246,30.032],[110.742,30.096],[110.716,30.03],[110.463,30.014],[110.591,29.771],[110.362,29.65],[110.104,29.785],[109.783,29.735],[109.472,29.568],[109.207,29.104],[108.921,29.349],[108.872,29.639],[108.696,29.698],[108.613,29.858],[108.513,29.722],[108.447,29.736],[108.4,29.831],[108.538,29.885],[108.55,30.009],[108.532,30.315],[108.381,30.4],[108.433,30.487],[108.965,30.607],[109.394,30.584],[109.749,30.835],[109.871,30.889],[110.066,30.828],[110.128,30.906],[110.147,31.331],[109.929,31.519],[109.733,31.561],[109.594,31.738],[109.666,32.043],[109.487,32.336],[109.635,32.591],[110.001,32.552],[110.168,32.622],[110.155,32.73],[110.096,32.841],[109.74,32.93],[109.757,33.08],[109.491,33.145],[109.516,33.237],[109.875,33.243],[110.234,33.156],[110.547,33.245],[110.711,33.108],[110.975,33.266],[111.532,32.611],[111.711,32.6],[111.779,32.52],[112.286,32.351],[113.183,32.413],[113.436,32.289],[113.729,32.419],[113.783,32.359],[113.794,31.973],[113.96,31.832],[113.972,31.747],[114.144,31.848],[114.362,31.734],[114.495,31.759],[114.556,31.738],[114.548,31.573],[114.767,31.49],[114.999,31.478],[115.129,31.595],[115.286,31.395],[115.374,31.418],[115.55,31.183],[115.669,31.217],[116.036,30.989],[115.859,30.861],[115.768,30.688],[115.947,30.488],[115.877,30.39],[116.04,30.221],[116.147,29.789],[115.856,29.739],[115.705,29.861],[115.486,29.864],[115.417,29.712],[115.272,29.615],[114.973,29.56],[114.818,29.394],[114.47,29.318],[114.308,29.355],[114.247,29.249],[114.063,29.203],[113.902,29.066]]]}},{"type":"Feature","properties":{"name":"湖南","admin":"China"},"bbox":[108.791324,24.642656,114.226858,30.096174],"geometry":{"type":"Polygon","coordinates":[[[109.207,29.104],[109.472,29.568],[109.783,29.735],[110.104,29.785],[110.362,29.65],[110.591,29.771],[110.463,30.014],[110.716,30.03],[110.742,30.096],[111.246,30.032],[111.415,29.926],[111.769,29.92],[112.363,29.572],[112.444,29.641],[112.648,29.627],[112.886,29.792],[112.946,29.709],[112.928,29.495],[113.146,29.472],[113.52,29.842],[113.536,29.686],[113.635,29.685],[113.729,29.437],[113.588,29.294],[113.655,29.124],[113.902,29.066],[113.905,28.956],[114.143,28.789],[114.057,28.564],[114.227,28.409],[113.916,28.021],[113.737,27.982],[113.562,27.591],[113.6,27.368],[113.851,27.346],[113.754,27.142],[113.892,26.945],[113.832,26.827],[113.865,26.656],[114.085,26.577],[113.939,26.209],[114.162,26.221],[114.214,26.17],[114.041,26.069],[113.907,25.75],[113.982,25.582],[113.928,25.448],[113.828,25.357],[113.582,25.326],[113.217,25.506],[112.917,25.325],[112.889,25.241],[112.969,25.181],[112.989,24.964],[112.808,24.943],[112.663,25.113],[112.214,25.2],[112.121,24.949],[112.145,24.794],[111.997,24.736],[111.667,24.78],[111.517,24.643],[111.428,24.681],[111.474,24.793],[111.427,25.106],[111.274,25.148],[111.079,24.944],[111.006,24.935],[110.955,25.025],[110.993,25.151],[111.316,25.503],[111.324,25.73],[111.411,25.803],[111.408,25.908],[111.256,25.869],[111.202,25.93],[111.252,26.28],[110.935,26.382],[110.879,26.275],[110.577,26.351],[110.537,26.225],[110.342,26.113],[110.247,25.978],[110.138,26.052],[110.034,26.036],[110.062,26.15],[109.912,26.181],[109.781,26.024],[109.772,25.908],[109.677,25.889],[109.603,26.053],[109.457,26.039],[109.399,26.27],[109.297,26.313],[109.403,26.537],[109.294,26.727],[109.505,26.825],[109.444,26.901],[109.499,27.062],[109.438,27.131],[109.231,27.152],[108.95,27.027],[108.791,27.083],[109.418,27.56],[109.447,27.65],[109.328,27.808],[109.31,27.97],[109.363,28.03],[109.299,28.095],[109.354,28.265],[109.264,28.322],[109.285,28.573],[109.213,28.629],[109.281,28.729],[109.275,29.049],[109.207,29.104]]]}},{"type":"Feature","properties":{"name":"四川","admin":"China"},"bbox":[97.360962,26.034845,108.518369,34.295581],"geometry":{"type":"Polygon","coordinates":[[[105.499,32.907],[105.568,32.73],[105.633,32.707],[105.813,32.762],[105.875,32.845],[106.082,32.874],[106.057,32.714],[106.229,32.592],[106.713,32.738],[107.065,32.708],[107.07,32.523],[107.202,32.453],[107.448,32.522],[107.46,32.409],[107.659,32.389],[107.96,32.158],[108.237,32.263],[108.479,32.25],[108.518,32.198],[108.389,32.184],[108.419,32.1],[108.268,31.973],[108.501,31.791],[108.516,31.708],[108.033,31.222],[107.93,30.873],[107.85,30.81],[107.736,30.883],[107.508,30.822],[107.457,30.761],[107.478,30.61],[107.033,30.058],[106.717,30.059],[106.532,30.338],[106.239,30.22],[106.125,30.342],[105.792,30.423],[105.557,30.148],[105.739,30.033],[105.71,29.868],[105.291,29.585],[105.315,29.47],[105.405,29.43],[105.422,29.334],[105.701,29.224],[105.795,28.937],[106.008,28.973],[106.26,28.869],[106.298,28.672],[106.382,28.572],[106.339,28.48],[105.984,28.754],[105.892,28.609],[105.683,28.583],[105.621,28.482],[105.667,28.318],[105.847,28.269],[105.906,28.151],[106.109,28.175],[106.199,28.124],[106.345,27.835],[105.647,27.678],[105.524,27.775],[105.297,27.722],[105.228,27.856],[105.282,28.001],[105.056,28.088],[104.966,28.048],[104.897,27.901],[104.605,27.846],[104.375,27.962],[104.334,28.047],[104.445,28.1],[104.377,28.282],[104.268,28.334],[104.25,28.531],[104.44,28.605],[104.414,28.64],[103.837,28.605],[103.795,28.531],[103.88,28.326],[103.709,28.216],[103.572,28.243],[103.459,28.135],[103.509,27.865],[103.121,27.412],[102.977,27.389],[102.889,27.291],[102.901,26.925],[103.058,26.557],[103.003,26.4],[102.72,26.238],[102.61,26.26],[102.626,26.345],[102.568,26.379],[102.252,26.229],[102.113,26.084],[101.922,26.099],[101.85,26.035],[101.764,26.176],[101.595,26.209],[101.58,26.307],[101.644,26.349],[101.412,26.57],[101.503,26.766],[101.371,26.775],[101.342,26.871],[101.141,27.045],[101.173,27.191],[101.004,27.198],[100.941,27.435],[100.661,27.875],[100.41,27.829],[100.349,27.747],[100.059,28.066],[100.047,28.187],[100.162,28.236],[100.143,28.342],[99.846,28.604],[99.705,28.845],[99.629,28.815],[99.503,28.579],[99.393,28.543],[99.382,28.185],[99.163,28.438],[99.109,29.224],[98.987,29.651],[99.056,29.915],[98.905,30.664],[98.954,30.748],[98.775,30.902],[98.803,30.991],[98.611,31.256],[98.683,31.316],[98.768,31.23],[98.885,31.354],[98.445,31.804],[98.453,31.984],[98.22,32.252],[98.206,32.356],[97.431,32.7],[97.361,32.897],[97.504,33.046],[97.501,33.194],[97.724,33.406],[97.539,33.454],[97.391,33.611],[97.384,33.87],[97.696,34.005],[97.745,33.865],[98.035,33.96],[98.458,33.84],[98.646,33.676],[98.852,33.175],[99.225,32.999],[99.289,32.887],[99.699,32.745],[99.769,32.922],[100.047,32.935],[100.159,32.782],[100.119,32.671],[100.223,32.637],[100.255,32.726],[100.399,32.758],[100.498,32.669],[100.561,32.563],[100.473,32.485],[100.531,32.403],[100.697,32.686],[100.902,32.63],[101.171,32.688],[101.237,32.808],[101.131,32.938],[101.164,33.128],[101.445,33.236],[101.644,33.128],[101.727,33.268],[101.665,33.32],[101.691,33.42],[101.778,33.53],[101.884,33.546],[101.923,33.406],[101.832,33.269],[101.864,33.123],[102.482,33.465],[102.482,33.54],[102.356,33.609],[102.343,33.725],[102.171,33.942],[102.618,34.084],[102.598,34.165],[102.931,34.296],[103.12,34.169],[103.184,33.822],[103.272,33.765],[103.559,33.807],[103.523,33.714],[104.156,33.624],[104.406,33.063],[104.289,32.848],[104.558,32.688],[105.147,32.608],[105.435,32.774],[105.386,32.823],[105.431,32.911],[105.499,32.907]]]}},{"type":"Feature","properties":{"name":"云南","admin":"China"},"bbox":[97.529375,21.150131,106.193756,29.223772],"geometry":{"type":"Polygon","coordinates":[[[98.099,28.14],[98.23,28.203],[98.3,28.355],[98.41,28.251],[98.576,28.318],[98.64,28.424],[98.589,28.67],[98.678,28.757],[98.665,28.974],[98.785,29.0],[98.873,28.812],[98.946,28.842],[98.909,28.912],[99.006,29.073],[98.99,29.202],[99.109,29.224],[99.163,28.438],[99.275,28.277],[99.382,28.185],[99.393,28.543],[99.503,28.579],[99.629,28.815],[99.705,28.845],[99.846,28.604],[100.143,28.342],[100.162,28.236],[100.047,28.187],[100.059,28.066],[100.349,27.747],[100.41,27.829],[100.661,27.875],[100.941,27.435],[101.004,27.198],[101.173,27.191],[101.141,27.045],[101.342,26.871],[101.371,26.775],[101.503,26.766],[101.412,26.57],[101.644,26.349],[101.58,26.307],[101.595,26.209],[101.764,26.176],[101.85,26.035],[101.922,26.099],[102.113,26.084],[102.252,26.229],[102.568,26.379],[102.626,26.345],[102.61,26.26],[102.72,26.238],[102.878,26.365],[102.951,26.345],[103.058,26.557],[102.901,26.925],[102.889,27.291],[102.977,27.389],[103.121,27.412],[103.509,27.865],[103.459,28.135],[103.572,28.243],[103.709,28.216],[103.88,28.326],[103.795,28.531],[103.837,28.605],[104.414,28.64],[104.44,28.605],[104.25,28.531],[104.268,28.334],[104.377,28.282],[104.445,28.1],[104.334,28.047],[104.375,27.962],[104.605,27.846],[104.897,27.901],[104.966,28.048],[105.056,28.088],[105.282,28.001],[105.228,27.856],[105.297,27.722],[105.197,27.399],[105.083,27.413],[104.871,27.31],[104.594,27.314],[104.344,27.441],[104.174,27.272],[103.911,27.39],[103.596,27.076],[103.778,26.956],[103.717,26.799],[103.829,26.547],[104.02,26.514],[104.153,26.651],[104.359,26.648],[104.43,26.713],[104.676,26.379],[104.545,26.27],[104.499,26.031],[104.393,25.948],[104.421,25.857],[104.306,25.665],[104.433,25.507],[104.554,25.485],[104.566,25.381],[104.72,25.211],[104.707,25.017],[104.495,24.698],[104.599,24.403],[104.667,24.34],[104.753,24.468],[105.061,24.431],[105.176,24.31],[105.17,24.167],[105.447,24.038],[105.608,24.14],[105.788,24.021],[105.971,24.088],[106.157,23.974],[106.194,23.869],[106.134,23.797],[106.128,23.541],[105.983,23.469],[105.848,23.519],[105.629,23.347],[105.512,23.152],[105.275,23.345],[104.865,23.136],[104.796,22.911],[104.687,22.822],[104.372,22.704],[104.143,22.8],[104.054,22.752],[103.941,22.54],[103.62,22.782],[103.493,22.588],[103.301,22.764],[103.136,22.542],[102.982,22.448],[102.83,22.587],[102.471,22.751],[102.127,22.379],[102.024,22.439],[101.842,22.388],[101.708,22.487],[101.524,22.254],[101.603,21.99],[101.737,21.827],[101.723,21.315],[101.802,21.236],[101.728,21.156],[101.542,21.234],[101.248,21.197],[101.197,21.522],[101.08,21.756],[100.605,21.472],[100.148,21.481],[100.096,21.661],[99.941,21.759],[99.918,22.028],[99.173,22.153],[99.338,22.498],[99.385,22.825],[99.507,22.959],[99.418,23.069],[98.864,23.191],[98.883,23.38],[98.798,23.52],[98.832,23.624],[98.677,23.905],[98.835,24.121],[98.583,24.07],[98.213,24.111],[97.686,23.898],[97.565,23.911],[97.708,24.229],[97.667,24.38],[97.531,24.492],[97.529,24.631],[97.583,24.775],[97.738,24.87],[97.715,25.034],[97.819,25.252],[98.011,25.293],[98.143,25.571],[98.334,25.587],[98.466,25.789],[98.656,25.864],[98.564,26.072],[98.686,26.189],[98.739,26.698],[98.651,27.572],[98.453,27.657],[98.299,27.55],[98.099,28.14]]]}},{"type":"Feature","properties":{"name":"河北","admin":"China"},"bbox":[113.453933,36.056559,119.849388,42.591096],"geometry":{"type":"MultiPolygon","coordinates":[[[[116.876,39.686],[116.922,39.774],[116.744,39.959],[116.829,40.037],[117.239,40.093],[117.148,39.948],[117.203,39.762],[117.153,39.618],[116.876,39.686]]],[[[117.558,38.625],[117.656,38.424],[117.839,38.274],[117.78,38.164],[117.569,38.049],[117.421,37.847],[116.744,37.799],[116.411,37.485],[116.35,37.621],[116.22,37.462],[116.256,37.387],[115.975,37.322],[115.773,36.946],[115.626,36.794],[115.478,36.754],[115.276,36.474],[115.449,36.249],[115.46,36.158],[115.35,36.082],[115.106,36.185],[114.931,36.057],[114.893,36.12],[114.548,36.139],[114.343,36.245],[114.063,36.277],[113.989,36.359],[113.721,36.356],[113.535,36.483],[113.454,36.737],[113.776,36.891],[113.754,37.115],[114.053,37.501],[114.1,37.698],[113.791,38.153],[113.558,38.243],[113.534,38.537],[113.825,38.81],[113.76,38.909],[113.853,39.072],[114.013,39.119],[114.216,39.069],[114.394,39.169],[114.541,39.531],[114.402,39.658],[114.383,39.861],[114.086,39.917],[113.936,40.016],[114.085,40.185],[114.45,40.294],[114.434,40.361],[114.286,40.379],[114.154,40.743],[113.881,41.099],[113.985,41.241],[113.909,41.294],[113.928,41.418],[114.027,41.531],[114.197,41.594],[114.256,41.86],[114.42,41.956],[114.481,42.075],[114.805,42.178],[114.92,41.937],[114.889,41.61],[115.226,41.586],[115.347,41.624],[115.34,41.721],[115.859,41.927],[115.937,41.927],[116.038,41.801],[116.378,42.01],[116.6,41.924],[116.858,42.02],[116.879,42.22],[116.827,42.308],[116.887,42.395],[117.056,42.463],[117.412,42.458],[117.45,42.549],[117.743,42.591],[118.024,42.383],[117.989,42.222],[118.086,42.182],[118.134,42.022],[118.268,42.074],[118.322,41.864],[118.278,41.753],[118.159,41.719],[118.314,41.57],[118.37,41.314],[118.728,41.347],[119.231,41.273],[118.965,41.075],[118.855,40.821],[119.068,40.651],[119.191,40.7],[119.19,40.62],[119.294,40.531],[119.564,40.54],[119.635,40.209],[119.743,40.205],[119.738,40.1],[119.849,39.987],[119.591,39.903],[119.391,39.752],[119.225,39.408],[118.912,39.166],[118.626,39.177],[118.298,39.067],[118.148,39.195],[118.01,39.22],[118.008,39.343],[117.897,39.399],[117.893,39.565],[117.631,39.576],[117.533,39.75],[117.501,39.989],[117.766,39.964],[117.75,40.063],[117.251,40.338],[117.184,40.497],[117.243,40.57],[117.412,40.597],[117.429,40.669],[117.058,40.677],[116.676,40.94],[116.653,41.031],[116.438,40.9],[116.459,40.792],[116.207,40.75],[115.995,40.596],[115.728,40.54],[115.945,40.294],[115.82,40.152],[115.578,40.096],[115.427,39.963],[115.511,39.838],[115.437,39.749],[115.463,39.643],[115.756,39.509],[116.21,39.572],[116.387,39.442],[116.604,39.611],[116.793,39.602],[116.826,39.217],[116.892,39.103],[116.712,39.012],[116.711,38.821],[117.271,38.559],[117.558,38.625]]]]}},{"type":"Feature","properties":{"name":"河南","admin":"China"},"bbox":[110.327664,31.395138,116.64118,36.359021],"geometry":{"type":"Polygon","coordinates":[[[115.374,31.418],[115.286,31.395],[115.129,31.595],[114.999,31.478],[114.767,31.49],[114.548,31.573],[114.556,31.738],[114.362,31.734],[114.144,31.848],[113.972,31.747],[113.96,31.832],[113.794,31.973],[113.783,32.359],[113.729,32.419],[113.436,32.289],[113.183,32.413],[112.286,32.351],[111.779,32.52],[111.711,32.6],[111.532,32.611],[111.003,33.208],[110.968,33.599],[110.594,33.88],[110.642,33.98],[110.607,34.17],[110.434,34.261],[110.479,34.326],[110.328,34.48],[110.336,34.616],[110.531,34.584],[111.558,34.863],[111.829,35.083],[112.061,35.108],[112.058,35.234],[112.526,35.22],[112.682,35.311],[112.903,35.241],[113.491,35.525],[113.61,35.646],[113.721,36.356],[113.989,36.359],[114.156,36.247],[114.893,36.12],[114.931,36.057],[115.106,36.185],[115.35,36.082],[115.46,36.158],[115.318,35.792],[115.468,35.913],[116.077,36.103],[116.034,35.966],[115.966,35.986],[115.863,35.925],[115.874,35.866],[115.504,35.723],[115.345,35.496],[115.068,35.38],[114.864,35.189],[114.834,35.016],[115.174,34.944],[115.216,34.836],[115.429,34.78],[115.436,34.676],[115.542,34.578],[116.151,34.567],[116.157,34.447],[116.401,34.275],[116.552,34.287],[116.543,34.121],[116.641,33.953],[116.421,33.791],[116.182,33.718],[115.971,33.905],[115.961,34.0],[115.654,34.048],[115.561,33.898],[115.63,33.839],[115.574,33.75],[115.635,33.592],[115.443,33.548],[115.346,33.453],[115.345,33.251],[115.251,33.121],[114.887,33.083],[114.925,32.958],[115.185,32.859],[115.199,32.591],[115.367,32.56],[115.565,32.402],[115.647,32.402],[115.694,32.492],[115.888,32.394],[115.901,31.794],[115.532,31.736],[115.374,31.418]]]}},{"type":"Feature","properties":{"name":"辽宁","admin":"China"},"bbox":[118.854689,38.731641,125.766412,43.472282],"geometry":{"type":"Polygon","coordinates":[[[125.709,40.853],[125.417,40.66],[124.889,40.46],[124.106,39.841],[123.76,39.822],[123.651,39.882],[123.581,39.786],[123.032,39.674],[122.335,39.366],[121.982,39.053],[121.677,39.003],[121.65,38.865],[121.164,38.732],[121.107,38.921],[121.68,39.109],[121.628,39.22],[121.818,39.387],[121.275,39.385],[121.267,39.545],[121.518,39.639],[121.474,39.755],[121.517,39.845],[121.801,39.951],[122.264,40.5],[122.14,40.688],[121.859,40.842],[121.835,40.974],[121.729,40.846],[121.175,40.901],[120.771,40.589],[120.479,40.231],[119.849,39.987],[119.738,40.1],[119.743,40.205],[119.635,40.209],[119.564,40.54],[119.294,40.531],[119.19,40.62],[119.191,40.7],[119.068,40.651],[118.855,40.821],[118.965,41.075],[119.362,41.375],[119.39,41.473],[119.299,41.777],[119.366,42.1],[119.245,42.192],[119.336,42.289],[119.563,42.372],[119.629,42.251],[119.821,42.209],[119.808,42.12],[120.03,41.861],[120.026,41.734],[120.108,41.707],[120.469,42.038],[120.509,42.149],[120.913,42.297],[121.034,42.26],[121.369,42.5],[121.544,42.535],[121.724,42.458],[122.045,42.721],[122.4,42.658],[122.367,42.799],[122.476,42.85],[122.728,42.741],[123.131,42.826],[123.182,42.944],[123.612,43.081],[123.749,43.472],[124.282,43.226],[124.419,43.082],[124.376,42.986],[124.52,42.872],[124.766,43.106],[124.888,43.087],[124.86,42.888],[125.209,42.406],[125.179,42.333],[125.481,42.151],[125.295,41.957],[125.306,41.68],[125.45,41.68],[125.651,41.286],[125.738,41.245],[125.766,41.139],[125.576,40.913],[125.709,40.853]]]}},{"type":"Feature","properties":{"name":"山东","admin":"China"},"bbox":[114.834211,34.399244,122.666992,38.274344],"geometry":{"type":"Polygon","coordinates":[[[117.839,38.274],[118.015,38.183],[118.543,38.095],[118.8,38.127],[118.94,38.043],[119.089,37.701],[118.991,37.641],[118.953,37.331],[119.287,37.138],[119.761,37.155],[119.888,37.253],[119.883,37.351],[120.312,37.623],[120.257,37.679],[120.75,37.834],[121.64,37.46],[121.965,37.445],[122.057,37.529],[122.338,37.405],[122.667,37.403],[122.573,37.318],[122.587,37.181],[122.447,37.068],[122.52,36.947],[122.341,36.832],[122.242,36.85],[122.162,36.959],[121.933,36.959],[121.054,36.611],[120.811,36.633],[120.896,36.444],[120.712,36.413],[120.638,36.13],[120.393,36.054],[120.328,36.228],[120.183,36.202],[120.094,36.119],[120.285,35.984],[119.72,35.589],[119.43,35.301],[119.295,35.071],[119.176,35.106],[118.867,35.036],[118.759,34.749],[118.681,34.684],[118.477,34.689],[118.391,34.444],[118.165,34.399],[118.05,34.651],[117.915,34.677],[117.79,34.651],[117.773,34.527],[117.469,34.475],[117.337,34.589],[117.182,34.45],[117.061,34.709],[116.828,34.958],[116.47,34.898],[116.377,34.64],[116.267,34.577],[115.542,34.578],[115.436,34.676],[115.429,34.78],[115.216,34.836],[115.174,34.944],[114.834,35.016],[114.864,35.189],[115.068,35.38],[115.345,35.496],[115.504,35.723],[115.874,35.866],[115.863,35.925],[115.966,35.986],[116.034,35.966],[116.077,36.103],[115.468,35.913],[115.318,35.792],[115.46,36.158],[115.276,36.474],[115.478,36.754],[115.626,36.794],[115.773,36.946],[115.975,37.322],[116.256,37.387],[116.22,37.462],[116.35,37.621],[116.411,37.485],[116.744,37.799],[117.421,37.847],[117.839,38.274]]]}},{"type":"Feature","properties":{"name":"天津","admin":"China"},"bbox":[116.68061,38.559249,118.009539,40.257026],"geometry":{"type":"Polygon","coordinates":[[[118.01,39.22],[117.785,39.134],[117.558,38.625],[117.271,38.559],[117.095,38.612],[117.021,38.708],[116.881,38.699],[116.711,38.821],[116.681,38.916],[116.712,39.012],[116.892,39.103],[116.826,39.217],[116.793,39.602],[116.876,39.686],[117.153,39.618],[117.203,39.762],[117.148,39.948],[117.372,40.201],[117.357,40.257],[117.75,40.063],[117.766,39.964],[117.501,39.989],[117.533,39.75],[117.631,39.576],[117.893,39.565],[117.897,39.399],[118.008,39.343],[118.01,39.22]]]}},{"type":"Feature","properties":{"name":"江西","admin":"China"},"bbox":[113.562092,24.49959,118.476262,30.050673],"geometry":{"type":"Polygon","coordinates":[[[113.928,25.448],[113.982,25.582],[113.907,25.75],[114.041,26.069],[114.214,26.17],[114.162,26.221],[113.939,26.209],[114.085,26.577],[113.865,26.656],[113.832,26.827],[113.892,26.945],[113.754,27.142],[113.851,27.346],[113.6,27.368],[113.562,27.591],[113.737,27.982],[113.916,28.021],[114.227,28.409],[114.057,28.564],[114.143,28.789],[113.905,28.956],[113.902,29.066],[114.063,29.203],[114.247,29.249],[114.308,29.355],[114.47,29.318],[114.818,29.394],[114.973,29.56],[115.272,29.615],[115.417,29.712],[115.486,29.864],[115.705,29.861],[115.856,29.739],[116.236,29.781],[116.493,29.885],[116.65,30.051],[116.791,30.022],[116.887,29.92],[116.798,29.756],[116.675,29.708],[116.648,29.627],[116.749,29.545],[116.888,29.561],[117.079,29.71],[117.067,29.841],[117.125,29.911],[117.406,29.831],[117.527,29.622],[118.113,29.519],[118.175,29.408],[118.001,29.144],[118.426,28.695],[118.476,28.332],[118.349,28.22],[118.368,28.1],[117.823,27.937],[117.746,27.813],[117.605,27.866],[117.544,27.967],[117.284,27.857],[117.287,27.773],[117.112,27.568],[117.101,27.347],[117.154,27.276],[117.04,27.11],[116.923,27.021],[116.67,26.987],[116.545,26.868],[116.505,26.689],[116.619,26.492],[116.594,26.395],[116.502,26.407],[116.399,26.288],[116.397,26.061],[116.323,25.955],[116.135,25.866],[116.028,25.636],[115.979,25.351],[115.843,25.195],[115.888,24.917],[115.787,24.861],[115.749,24.748],[115.799,24.573],[115.706,24.546],[115.421,24.785],[114.425,24.5],[114.192,24.695],[114.302,24.759],[114.414,24.98],[114.729,25.119],[114.683,25.163],[114.707,25.29],[114.569,25.407],[114.026,25.268],[114.012,25.435],[113.928,25.448]]]}},{"type":"Feature","properties":{"name":"江苏","admin":"China"},"bbox":[116.377217,30.763704,121.866309,35.10592],"geometry":{"type":"Polygon","coordinates":[[[119.295,35.071],[119.165,34.849],[119.201,34.748],[119.351,34.749],[119.583,34.582],[120.267,34.274],[120.505,33.638],[120.871,33.017],[120.853,32.661],[121.342,32.425],[121.401,32.372],[121.404,32.206],[121.751,31.993],[121.856,31.816],[121.866,31.704],[121.681,31.712],[121.352,31.859],[120.974,31.869],[120.792,32.032],[120.52,32.106],[120.036,31.936],[120.192,31.906],[120.497,32.02],[120.716,31.984],[120.788,31.82],[121.055,31.719],[121.351,31.485],[121.187,31.458],[121.035,31.144],[120.883,31.14],[120.909,31.012],[120.692,30.977],[120.709,30.891],[120.491,30.764],[120.447,30.89],[120.129,30.943],[119.932,31.15],[119.63,31.133],[119.163,31.287],[118.816,31.226],[118.756,31.281],[118.881,31.522],[118.86,31.627],[118.681,31.647],[118.684,31.701],[118.477,31.79],[118.481,31.859],[118.352,31.947],[118.383,32.054],[118.514,32.2],[118.65,32.238],[118.684,32.339],[118.668,32.453],[118.552,32.574],[118.891,32.596],[119.081,32.446],[119.199,32.594],[119.11,32.834],[118.993,32.962],[118.857,32.972],[118.72,32.732],[118.3,32.777],[118.218,33.18],[118.081,33.15],[117.932,33.235],[118.177,33.693],[118.124,33.766],[117.752,33.724],[117.746,33.882],[117.651,33.982],[117.034,34.156],[116.949,34.389],[116.802,34.4],[116.377,34.64],[116.47,34.898],[116.828,34.958],[117.061,34.709],[117.182,34.45],[117.337,34.589],[117.469,34.475],[117.773,34.527],[117.79,34.651],[117.915,34.677],[118.05,34.651],[118.165,34.399],[118.391,34.444],[118.477,34.689],[118.681,34.684],[118.759,34.749],[118.867,35.036],[119.176,35.106],[119.295,35.071]]]}},{"type":"Feature","properties":{"name":"上海","admin":"China"},"bbox":[120.882989,30.685054,121.87793,31.805371],"geometry":{"type":"MultiPolygon","coordinates":[[[[121.351,31.485],[121.661,31.32],[121.878,30.917],[121.528,30.841],[121.278,30.685],[121.104,30.834],[120.981,30.832],[120.969,31.009],[120.909,31.012],[120.883,31.14],[121.035,31.144],[121.187,31.458],[121.351,31.485]]],[[[121.577,31.637],[121.863,31.492],[121.78,31.464],[121.52,31.55],[121.336,31.644],[121.211,31.805],[121.464,31.756],[121.577,31.637]]]]}},{"type":"Feature","properties":{"name":"浙江","admin":"China"},"bbox":[118.000787,27.202522,122.403906,31.176495],"geometry":{"type":"MultiPolygon","coordinates":[[[[121.205,28.204],[121.251,28.086],[121.132,28.063],[121.205,28.204]]],[[[121.278,30.685],[120.998,30.558],[120.821,30.355],[120.45,30.388],[120.195,30.241],[120.495,30.303],[120.633,30.133],[120.904,30.161],[121.258,30.304],[121.433,30.227],[121.678,29.979],[122.083,29.87],[121.506,29.485],[121.888,29.628],[121.968,29.491],[121.918,29.135],[121.717,29.256],[121.534,29.237],[121.448,29.131],[121.68,28.953],[121.54,28.932],[121.662,28.851],[121.475,28.641],[121.61,28.292],[121.51,28.324],[121.272,28.222],[121.217,28.346],[121.146,28.327],[120.959,28.037],[120.748,28.01],[120.833,27.891],[120.588,27.581],[120.608,27.412],[120.424,27.203],[120.344,27.38],[120.249,27.41],[119.77,27.316],[119.616,27.666],[119.266,27.424],[119.005,27.48],[118.923,27.55],[118.82,27.91],[118.748,27.973],[118.797,28.213],[118.735,28.326],[118.446,28.289],[118.426,28.695],[118.001,29.144],[118.052,29.275],[118.132,29.298],[118.175,29.408],[118.373,29.453],[118.724,29.73],[118.741,29.828],[118.894,29.983],[118.881,30.324],[119.211,30.314],[119.363,30.404],[119.321,30.518],[119.242,30.551],[119.351,30.675],[119.443,30.639],[119.575,30.847],[119.63,31.133],[119.932,31.15],[120.129,30.943],[120.447,30.89],[120.491,30.764],[120.709,30.891],[120.692,30.977],[120.969,31.009],[120.981,30.832],[121.104,30.834],[121.278,30.685]]],[[[122.402,29.95],[122.394,29.846],[122.332,29.935],[122.402,29.95]]],[[[122.284,30.068],[122.282,29.944],[122.024,30.013],[121.969,30.143],[122.284,30.068]]],[[[122.12,29.782],[122.169,29.66],[122.043,29.736],[122.12,29.782]]]]}},{"type":"Feature","properties":{"name":"吉林","admin":"China"},"bbox":[121.666403,40.852873,131.261787,46.272344],"geometry":{"type":"Polygon","coordinates":[[[131.245,43.467],[131.069,42.902],[130.453,42.755],[130.42,42.7],[130.577,42.623],[130.527,42.535],[130.247,42.745],[130.24,42.892],[129.898,42.998],[129.698,42.448],[129.524,42.385],[129.314,42.414],[129.195,42.218],[128.923,42.038],[128.045,41.988],[128.033,41.898],[128.289,41.607],[128.149,41.388],[128.013,41.449],[127.688,41.44],[127.18,41.531],[127.007,41.742],[126.903,41.781],[126.601,41.641],[126.49,41.358],[125.989,40.905],[125.709,40.853],[125.576,40.913],[125.766,41.139],[125.738,41.245],[125.651,41.286],[125.45,41.68],[125.306,41.68],[125.295,41.957],[125.481,42.151],[125.179,42.333],[125.209,42.406],[124.86,42.888],[124.888,43.087],[124.766,43.106],[124.52,42.872],[124.376,42.986],[124.419,43.082],[124.282,43.226],[123.749,43.472],[123.696,43.353],[123.378,43.453],[123.361,43.54],[123.49,43.591],[123.522,43.697],[123.322,44.042],[123.359,44.151],[123.117,44.406],[123.124,44.494],[123.045,44.513],[122.377,44.22],[122.254,44.246],[122.282,44.429],[122.046,44.695],[122.011,45.118],[122.192,45.201],[122.234,45.287],[122.136,45.449],[121.964,45.568],[121.934,45.69],[121.666,45.716],[121.815,45.914],[121.774,46.01],[121.996,45.98],[122.24,45.813],[122.399,45.949],[122.647,45.725],[122.773,45.788],[122.799,46.089],[123.069,46.109],[123.258,46.265],[123.919,46.272],[124.034,46.018],[123.979,45.978],[124.062,45.872],[124.018,45.782],[124.396,45.451],[124.563,45.415],[125.028,45.498],[125.104,45.395],[125.699,45.511],[125.705,45.36],[125.841,45.235],[126.15,45.141],[126.559,45.247],[126.953,45.134],[127.077,44.934],[126.978,44.826],[127.045,44.598],[127.147,44.655],[127.375,44.649],[127.559,44.574],[127.493,44.411],[127.744,44.086],[127.85,44.056],[128.052,44.126],[128.043,44.341],[128.155,44.353],[128.207,44.44],[128.359,44.502],[128.419,44.45],[128.446,44.154],[128.883,43.556],[129.229,43.608],[129.249,43.786],[129.752,43.874],[129.913,44.022],[130.0,43.984],[130.033,43.856],[130.28,43.964],[130.414,43.669],[130.917,43.45],[130.995,43.508],[131.149,43.436],[131.245,43.467]]]}},{"type":"Feature","properties":{"name":"内蒙古","admin":"China"},"bbox":[97.205674,37.390328,126.056265,53.317056],"geometry":{"type":"Polygon","coordinates":[[[97.206,42.79],[99.468,42.568],[99.984,42.677],[101.495,42.539],[101.66,42.5],[101.973,42.216],[102.157,42.158],[103.073,42.006],[103.711,41.751],[104.498,41.877],[104.498,41.659],[104.982,41.596],[105.197,41.738],[106.77,42.289],[108.171,42.447],[109.443,42.456],[110.4,42.774],[111.007,43.341],[111.547,43.496],[111.933,43.711],[111.837,43.935],[111.603,44.107],[111.402,44.367],[111.621,44.827],[111.898,45.064],[112.411,45.058],[112.707,44.883],[113.587,44.746],[114.08,44.971],[114.419,45.203],[114.56,45.39],[115.681,45.458],[116.198,45.739],[116.213,45.887],[116.563,46.29],[116.859,46.388],[117.333,46.362],[117.438,46.586],[117.741,46.518],[118.071,46.667],[118.309,46.717],[118.723,46.692],[118.844,46.76],[119.332,46.614],[119.707,46.606],[119.867,46.672],[119.898,46.858],[119.711,47.15],[119.162,47.525],[119.082,47.654],[118.76,47.758],[118.498,47.984],[118.147,48.029],[117.768,47.988],[117.351,47.652],[117.07,47.806],[116.761,47.87],[116.231,47.858],[115.898,47.687],[115.616,47.875],[115.525,48.131],[115.786,48.248],[115.821,48.577],[116.026,48.782],[116.683,49.824],[117.246,49.625],[117.873,49.513],[118.452,49.845],[119.26,50.066],[119.346,50.279],[119.164,50.406],[119.446,50.703],[120.067,51.601],[120.511,51.849],[120.75,52.097],[120.665,52.3],[120.699,52.494],[120.656,52.567],[120.173,52.602],[120.068,52.633],[120.044,52.718],[120.704,53.172],[120.985,53.285],[121.405,53.317],[121.607,53.241],[121.8,53.024],[121.174,52.595],[121.692,52.389],[121.831,52.269],[122.018,52.283],[122.174,52.48],[122.339,52.454],[122.492,52.295],[122.731,52.249],[122.775,52.2],[122.638,52.095],[122.754,51.847],[122.714,51.702],[122.956,51.386],[123.088,51.312],[123.57,51.204],[123.789,51.233],[123.866,51.313],[124.351,51.279],[124.502,51.361],[124.821,51.366],[125.128,51.616],[125.487,51.507],[125.719,51.254],[125.984,51.104],[126.056,50.98],[125.824,50.767],[125.809,50.562],[125.531,50.393],[125.418,50.195],[125.264,50.106],[125.295,50.014],[125.188,49.942],[125.22,49.668],[125.131,49.637],[125.267,49.438],[125.223,49.22],[125.158,49.151],[124.864,49.175],[124.538,48.572],[124.52,48.129],[124.426,48.174],[124.301,48.492],[124.234,48.531],[123.578,48.054],[123.293,47.946],[123.207,47.814],[122.565,47.531],[122.405,47.332],[122.574,47.131],[122.797,47.034],[122.996,46.84],[123.187,46.762],[123.38,46.898],[123.609,46.775],[123.397,46.598],[123.02,46.612],[122.989,46.407],[123.162,46.22],[123.069,46.109],[122.799,46.089],[122.773,45.788],[122.647,45.725],[122.399,45.949],[122.24,45.813],[121.996,45.98],[121.774,46.01],[121.815,45.914],[121.666,45.716],[121.934,45.69],[121.964,45.568],[122.136,45.449],[122.234,45.287],[122.192,45.201],[122.011,45.118],[122.046,44.695],[122.282,44.429],[122.254,44.246],[122.377,44.22],[123.045,44.513],[123.124,44.494],[123.117,44.406],[123.359,44.151],[123.322,44.042],[123.522,43.697],[123.49,43.591],[123.361,43.54],[123.378,43.453],[123.696,43.353],[123.612,43.081],[123.182,42.944],[123.131,42.826],[122.893,42.745],[122.728,42.741],[122.476,42.85],[122.367,42.799],[122.4,42.658],[122.045,42.721],[121.724,42.458],[121.544,42.535],[121.369,42.5],[121.034,42.26],[120.913,42.297],[120.509,42.149],[120.469,42.038],[120.108,41.707],[120.026,41.734],[120.03,41.861],[119.808,42.12],[119.821,42.209],[119.629,42.251],[119.563,42.372],[119.336,42.289],[119.245,42.192],[119.366,42.1],[119.299,41.777],[119.39,41.473],[119.231,41.273],[118.728,41.347],[118.37,41.314],[118.314,41.57],[118.159,41.719],[118.278,41.753],[118.322,41.864],[118.268,42.074],[118.134,42.022],[118.086,42.182],[117.989,42.222],[118.024,42.383],[117.743,42.591],[117.45,42.549],[117.412,42.458],[117.056,42.463],[116.887,42.395],[116.827,42.308],[116.879,42.22],[116.858,42.02],[116.6,41.924],[116.378,42.01],[116.038,41.801],[115.937,41.927],[115.859,41.927],[115.34,41.721],[115.347,41.624],[115.226,41.586],[114.889,41.61],[114.92,41.937],[114.805,42.178],[114.596,42.141],[114.256,41.86],[114.197,41.594],[114.027,41.531],[113.928,41.418],[113.909,41.294],[113.985,41.241],[113.881,41.099],[114.154,40.743],[114.027,40.635],[114.044,40.488],[113.334,40.319],[113.23,40.417],[113.086,40.404],[112.734,40.173],[112.399,40.288],[112.099,40.005],[111.921,39.689],[111.761,39.598],[111.49,39.652],[111.343,39.444],[111.11,39.385],[111.041,39.423],[111.137,39.565],[111.013,39.565],[110.685,39.264],[110.494,39.374],[110.338,39.318],[110.225,39.424],[110.109,39.428],[110.177,39.285],[109.674,39.011],[109.538,38.785],[109.424,38.769],[108.986,38.335],[109.001,37.988],[108.954,37.926],[108.863,37.988],[108.791,37.942],[108.764,37.682],[108.039,37.633],[107.885,37.802],[107.405,37.922],[107.324,38.066],[107.163,38.139],[106.829,38.15],[106.47,38.291],[106.645,38.459],[106.978,39.036],[106.808,39.199],[106.789,39.361],[106.614,39.358],[106.497,39.286],[106.276,39.269],[106.283,39.157],[106.113,39.121],[105.897,38.736],[105.828,38.227],[105.756,38.136],[105.825,38.005],[105.788,37.805],[105.659,37.74],[105.354,37.753],[104.944,37.546],[104.522,37.53],[104.262,37.39],[103.679,37.775],[103.438,37.842],[103.387,37.999],[103.388,38.102],[103.522,38.14],[103.471,38.436],[103.794,38.591],[104.172,38.96],[104.225,39.091],[104.024,39.441],[103.464,39.357],[102.965,39.119],[102.393,39.237],[101.825,39.064],[102.023,38.893],[101.831,38.69],[101.32,38.758],[101.18,39.021],[101.049,39.001],[100.889,39.105],[100.79,39.408],[100.543,39.409],[100.189,39.695],[99.686,39.876],[99.431,39.879],[99.627,40.069],[99.899,40.205],[100.204,40.617],[100.176,40.735],[100.011,40.896],[99.157,40.836],[98.826,40.727],[98.646,40.568],[98.235,40.542],[98.327,40.856],[97.708,41.349],[97.648,41.456],[97.847,41.619],[97.206,42.79]]]}},{"type":"Feature","properties":{"name":"黑龙江","admin":"China"},"bbox":[121.173927,43.436109,134.752323,53.555594],"geometry":{"type":"Polygon","coordinates":[[[121.405,53.317],[122.338,53.485],[123.608,53.547],[124.812,53.134],[125.075,53.204],[125.649,53.042],[125.728,52.891],[125.872,52.872],[126.048,52.739],[126.016,52.61],[126.342,52.362],[126.511,51.926],[126.701,51.703],[126.709,51.566],[126.805,51.506],[126.925,51.1],[127.307,50.708],[127.337,50.35],[127.59,50.209],[127.492,49.975],[127.551,49.802],[127.711,49.672],[128.0,49.569],[128.704,49.6],[128.819,49.464],[129.065,49.375],[129.498,49.389],[130.196,48.892],[130.553,48.861],[130.617,48.773],[130.552,48.603],[130.804,48.341],[130.712,48.128],[130.733,48.019],[131.003,47.691],[132.476,47.715],[132.707,47.947],[133.02,48.064],[133.468,48.097],[133.842,48.274],[134.293,48.373],[134.665,48.254],[134.669,48.153],[134.566,48.022],[134.752,47.715],[134.542,47.485],[134.291,47.414],[134.168,47.302],[134.202,47.128],[133.867,46.499],[133.861,46.248],[133.701,46.14],[133.648,45.955],[133.513,45.879],[133.436,45.605],[133.186,45.495],[133.113,45.131],[132.936,45.03],[131.978,45.244],[131.852,45.327],[131.447,44.984],[130.982,44.844],[131.255,44.072],[131.174,43.705],[131.182,43.506],[131.245,43.467],[131.149,43.436],[130.995,43.508],[130.917,43.45],[130.414,43.669],[130.28,43.964],[130.033,43.856],[130.0,43.984],[129.913,44.022],[129.752,43.874],[129.249,43.786],[129.229,43.608],[128.883,43.556],[128.446,44.154],[128.419,44.45],[128.359,44.502],[128.207,44.44],[128.155,44.353],[128.043,44.341],[128.052,44.126],[127.85,44.056],[127.744,44.086],[127.493,44.411],[127.559,44.574],[127.375,44.649],[127.147,44.655],[127.045,44.598],[126.978,44.826],[127.077,44.934],[126.953,45.134],[126.559,45.247],[126.15,45.141],[125.841,45.235],[125.705,45.36],[125.699,45.511],[125.104,45.395],[125.028,45.498],[124.563,45.415],[124.396,45.451],[124.018,45.782],[124.062,45.872],[123.979,45.978],[124.034,46.018],[123.919,46.272],[123.162,46.22],[122.989,46.407],[123.02,46.612],[123.397,46.598],[123.609,46.775],[123.38,46.898],[123.187,46.762],[122.996,46.84],[122.797,47.034],[122.574,47.131],[122.405,47.332],[122.565,47.531],[123.207,47.814],[123.293,47.946],[123.578,48.054],[124.234,48.531],[124.301,48.492],[124.426,48.174],[124.52,48.129],[124.538,48.572],[124.864,49.175],[125.158,49.151],[125.223,49.22],[125.267,49.438],[125.131,49.637],[125.22,49.668],[125.188,49.942],[125.295,50.014],[125.264,50.106],[125.418,50.195],[125.531,50.393],[125.809,50.562],[125.824,50.767],[126.056,50.98],[125.984,51.104],[125.719,51.254],[125.487,51.507],[125.128,51.616],[124.821,51.366],[124.502,51.361],[124.351,51.279],[123.866,51.313],[123.789,51.233],[123.57,51.204],[123.088,51.312],[122.956,51.386],[122.714,51.702],[122.754,51.847],[122.638,52.095],[122.775,52.2],[122.731,52.249],[122.492,52.295],[122.339,52.454],[122.174,52.48],[122.018,52.283],[121.831,52.269],[121.692,52.389],[121.174,52.595],[121.8,53.024],[121.607,53.241],[121.405,53.317]]]}},{"type":"Feature","id":"TWN","properties":{"name":"台湾","admin":"China"},"geometry":{"type":"Polygon","coordinates":[[[121.778,24.394],[121.176,22.791],[120.747,21.971],[120.22,22.815],[120.106,23.556],[120.695,24.538],[121.495,25.295],[121.951,24.998],[121.778,24.394]]]}}],"bbox":[-180,-46.962890625,180,83.1161137814993]}